[{"OBJECT_NAME":"STARLINK-4413","OBJECT_ID":"2022-084U","EPOCH":"2026-03-09T18:04:43.752288","MEAN_MOTION":15.01261476,"ECCENTRICITY":0.0001388,"INCLINATION":97.6031,"RA_OF_ASC_NODE":130.2576,"ARG_OF_PERICENTER":93.347,"MEAN_ANOMALY":266.7913,"EPHEMERIS_TYPE":0,"CLASSIFICATION_TYPE":"U","NORAD_CAT_ID":53207,"ELEMENT_SET_NO":999,"REV_AT_EPOCH":19932,"BSTAR":3.5798091e-5,"MEAN_MOTION_DOT":4.02e-6,"MEAN_MOTION_DDOT":0},{"OBJECT_NAME":"SL-19 R\/B","OBJECT_ID":"2009-059D","EPOCH":"2026-03-09T23:12:06.356736","MEAN_MOTION":14.95113684,"ECCENTRICITY":0.01234897,"INCLINATION":98.3546,"RA_OF_ASC_NODE":329.2242,"ARG_OF_PERICENTER":331.1085,"MEAN_ANOMALY":28.3333,"EPHEMERIS_TYPE":0,"CLASSIFICATION_TYPE":"U","NORAD_CAT_ID":36039,"ELEMENT_SET_NO":999,"REV_AT_EPOCH":88779,"BSTAR":0.00015970397,"MEAN_MOTION_DOT":1.961e-5,"MEAN_MOTION_DDOT":0}]
